[{"OBJECT_NAME":"SHIJIAN-6 03B (SJ-6 03B)","OBJECT_ID":"2008-053B","EPOCH":"2026-03-09T23:28:00.216192","MEAN_MOTION":15.03879314,"ECCENTRICITY":0.00200774,"INCLINATION":97.8673,"RA_OF_ASC_NODE":87.2117,"ARG_OF_PERICENTER":21.0315,"MEAN_ANOMALY":339.1731,"EPHEMERIS_TYPE":0,"CLASSIFICATION_TYPE":"U","NORAD_CAT_ID":33409,"ELEMENT_SET_NO":999,"REV_AT_EPOCH":94783,"BSTAR":0.00032650966,"MEAN_MOTION_DOT":4.452e-5,"MEAN_MOTION_DDOT":0},{"OBJECT_NAME":"STARLINK-2055","OBJECT_ID":"2021-005K","EPOCH":"2026-03-09T21:52:59.058624","MEAN_MOTION":15.06396353,"ECCENTRICITY":0.00013224,"INCLINATION":53.057,"RA_OF_ASC_NODE":30.6125,"ARG_OF_PERICENTER":88.6807,"MEAN_ANOMALY":271.4333,"EPHEMERIS_TYPE":0,"CLASSIFICATION_TYPE":"U","NORAD_CAT_ID":47358,"ELEMENT_SET_NO":999,"REV_AT_EPOCH":28349,"BSTAR":-9.4459261e-5,"MEAN_MOTION_DOT":-1.688e-5,"MEAN_MOTION_DDOT":0}]
